start=new Date('2023-01-27T00:00:00.000Z').valueOf();
sats=[{"TLE_LINE1":"1 53286U 22086AW  23026.92691501  .00001093  00000-0  86716-4 0  9993","TIME_SYSTEM":"UTC","APOAPSIS":"540.451","BSTAR":"0.00008671600000","DECAY_DATE":null,"RA_OF_ASC_NODE":"251.7308","PERIAPSIS":"538.997","RCS_SIZE":"LARGE","GP_ID":"223767682","EPHEMERIS_TYPE":"0","MEAN_MOTION_DOT":"0.00001093","MEAN_ELEMENT_THEORY":"SGP4","MEAN_MOTION":"15.08846903","SEMIMAJOR_AXIS":"6917.859","REV_AT_EPOCH":"2926","CLASSIFICATION_TYPE":"U","COUNTRY_CODE":"US","OBJECT_TYPE":"PAYLOAD","OBJECT_NAME":"STARLINK-4165","SITE":"AFETR","EPOCH":"2023-01-26T22:14:45.456864","CENTER_NAME":"EARTH","MEAN_MOTION_DDOT":"0.0000000000000","OBJECT_ID":"2022-086AW","LAUNCH_DATE":"2022-07-24","NORAD_CAT_ID":"53286","MEAN_ANOMALY":"270.6074","PERIOD":"95.437","ARG_OF_PERICENTER":"89.5039","ECCENTRICITY":"0.00010510","TLE_LINE2":"2 53286  53.2175 251.7308 0001051  89.5039 270.6074 15.08846903 29265","REF_FRAME":"TEME","INCLINATION":"53.2175","FILE":"3762268","ELEMENT_SET_NO":"999"},{"ARG_OF_PERICENTER":"82.9111","PERIOD":"95.437","MEAN_ANOMALY":"277.2015","INCLINATION":"53.2184","FILE":"3762268","REF_FRAME":"TEME","TLE_LINE2":"2 53287  53.2184 251.7957 0001176  82.9111 277.2015 15.08852411 29261","ECCENTRICITY":"0.00011760","ELEMENT_SET_NO":"999","SITE":"AFETR","OBJECT_ID":"2022-086AX","MEAN_MOTION_DDOT":"0.0000000000000","CENTER_NAME":"EARTH","EPOCH":"2023-01-26T21:53:33.064800","NORAD_CAT_ID":"53287","LAUNCH_DATE":"2022-07-24","MEAN_MOTION":"15.08852411","REV_AT_EPOCH":"2926","SEMIMAJOR_AXIS":"6917.842","CLASSIFICATION_TYPE":"U","COUNTRY_CODE":"US","OBJECT_NAME":"STARLINK-4107","OBJECT_TYPE":"PAYLOAD","APOAPSIS":"540.521","TIME_SYSTEM":"UTC","TLE_LINE1":"1 53287U 22086AX  23026.91218825  .00002656  00000-0  18486-3 0  9991","RA_OF_ASC_NODE":"251.7957","DECAY_DATE":null,"PERIAPSIS":"538.894","BSTAR":"0.00018486000000","EPHEMERIS_TYPE":"0","GP_ID":"223767857","RCS_SIZE":"LARGE","MEAN_ELEMENT_THEORY":"SGP4","MEAN_MOTION_DOT":"0.00002656"},{"LAUNCH_DATE":"2022-07-24","NORAD_CAT_ID":"53288","EPOCH":"2023-01-26T22:09:27.282816","OBJECT_ID":"2022-086AY","MEAN_MOTION_DDOT":"0.0000000000000","CENTER_NAME":"EARTH","SITE":"AFETR","ELEMENT_SET_NO":"999","TLE_LINE2":"2 53288  53.2163 251.7436 0001093  82.5530 277.5586 15.08844336 29263","ECCENTRICITY":"0.00010930","REF_FRAME":"TEME","FILE":"3762268","INCLINATION":"53.2163","MEAN_ANOMALY":"277.5586","ARG_OF_PERICENTER":"82.5530","PERIOD":"95.437","MEAN_MOTION_DOT":"0.00000077","MEAN_ELEMENT_THEORY":"SGP4","GP_ID":"223767864","RCS_SIZE":"LARGE","EPHEMERIS_TYPE":"0","BSTAR":"0.00002290900000","DECAY_DATE":null,"PERIAPSIS":"538.976","RA_OF_ASC_NODE":"251.7436","TIME_SYSTEM":"UTC","TLE_LINE1":"1 53288U 22086AY  23026.92323244  .00000077  00000-0  22909-4 0  9996","APOAPSIS":"540.488","OBJECT_TYPE":"PAYLOAD","OBJECT_NAME":"STARLINK-4162","COUNTRY_CODE":"US","CLASSIFICATION_TYPE":"U","SEMIMAJOR_AXIS":"6917.867","REV_AT_EPOCH":"2926","MEAN_MOTION":"15.08844336"},{"SITE":"AFETR","OBJECT_ID":"2022-086AZ","MEAN_MOTION_DDOT":"0.0000000000000","CENTER_NAME":"EARTH","EPOCH":"2023-01-26T21:15:52.707744","NORAD_CAT_ID":"53289","LAUNCH_DATE":"2022-07-24","ARG_OF_PERICENTER":"82.8306","PERIOD":"95.437","MEAN_ANOMALY":"277.2829","INCLINATION":"53.2166","FILE":"3762269","TLE_LINE2":"2 53289  53.2166 247.0244 0001264  82.8306 277.2829 15.08849073 29323","REF_FRAME":"TEME","ECCENTRICITY":"0.00012640","ELEMENT_SET_NO":"999","APOAPSIS":"540.592","TIME_SYSTEM":"UTC","TLE_LINE1":"1 53289U 22086AZ  23026.88602671  .00004658  00000-0  31047-3 0  9997","RA_OF_ASC_NODE":"247.0244","DECAY_DATE":null,"PERIAPSIS":"538.843","BSTAR":"0.00031047000000","EPHEMERIS_TYPE":"0","RCS_SIZE":"LARGE","GP_ID":"223767880","MEAN_ELEMENT_THEORY":"SGP4","MEAN_MOTION_DOT":"0.00004658","MEAN_MOTION":"15.08849073","REV_AT_EPOCH":"2932","SEMIMAJOR_AXIS":"6917.853","COUNTRY_CODE":"US","CLASSIFICATION_TYPE":"U","OBJECT_NAME":"STARLINK-4176","OBJECT_TYPE":"PAYLOAD"},{"NORAD_CAT_ID":"53290","LAUNCH_DATE":"2022-07-24","SITE":"AFETR","OBJECT_ID":"2022-086BA","MEAN_MOTION_DDOT":"0.0000000000000","CENTER_NAME":"EARTH","EPOCH":"2023-01-26T21:58:51.460032","ELEMENT_SET_NO":"999","PERIOD":"95.437","ARG_OF_PERICENTER":"101.7493","MEAN_ANOMALY":"258.3620","FILE":"3762269","INCLINATION":"53.2174","ECCENTRICITY":"0.00010690","TLE_LINE2":"2 53290  53.2174 251.7821 0001069 101.7493 258.3620 15.08849314 29268","REF_FRAME":"TEME","EPHEMERIS_TYPE":"0","RCS_SIZE":"LARGE","GP_ID":"223767871","MEAN_ELEMENT_THEORY":"SGP4","MEAN_MOTION_DOT":"-0.00001608","APOAPSIS":"540.456","TIME_SYSTEM":"UTC","TLE_LINE1":"1 53290U 22086BA  23026.91587338 -.00001608  00000-0 -82931-4 0  9998","DECAY_DATE":null,"RA_OF_ASC_NODE":"251.7821","PERIAPSIS":"538.977","BSTAR":"-0.00008293100000","COUNTRY_CODE":"US","CLASSIFICATION_TYPE":"U","OBJECT_NAME":"STARLINK-4149","OBJECT_TYPE":"PAYLOAD","MEAN_MOTION":"15.08849314","REV_AT_EPOCH":"2926","SEMIMAJOR_AXIS":"6917.852"},{"APOAPSIS":"540.613","TLE_LINE1":"1 53291U 22086BB  23026.05798538 -.00001341  00000-0 -66168-4 0  9998","TIME_SYSTEM":"UTC","RA_OF_ASC_NODE":"250.3933","DECAY_DATE":null,"PERIAPSIS":"538.835","BSTAR":"-0.00006616800000","EPHEMERIS_TYPE":"0","RCS_SIZE":"LARGE","GP_ID":"223761069","MEAN_ELEMENT_THEORY":"SGP4","MEAN_MOTION_DOT":"-0.00001341","MEAN_MOTION":"15.08846906","REV_AT_EPOCH":"2920","SEMIMAJOR_AXIS":"6917.859","COUNTRY_CODE":"US","CLASSIFICATION_TYPE":"U","OBJECT_NAME":"STARLINK-4166","OBJECT_TYPE":"PAYLOAD","SITE":"AFETR","CENTER_NAME":"EARTH","OBJECT_ID":"2022-086BB","MEAN_MOTION_DDOT":"0.0000000000000","EPOCH":"2023-01-26T01:23:29.936832","NORAD_CAT_ID":"53291","LAUNCH_DATE":"2022-07-24","PERIOD":"95.437","ARG_OF_PERICENTER":"108.4669","MEAN_ANOMALY":"251.6463","INCLINATION":"53.2173","FILE":"3761975","REF_FRAME":"TEME","TLE_LINE2":"2 53291  53.2173 250.3933 0001285 108.4669 251.6463 15.08846906 29205","ECCENTRICITY":"0.00012850","ELEMENT_SET_NO":"999"},{"RA_OF_ASC_NODE":"251.8124","DECAY_DATE":null,"PERIAPSIS":"538.924","BSTAR":"0.00017931000000","APOAPSIS":"540.548","TLE_LINE1":"1 53292U 22086BC  23026.90947447  .00002567  00000-0  17931-3 0  9990","TIME_SYSTEM":"UTC","MEAN_ELEMENT_THEORY":"SGP4","MEAN_MOTION_DOT":"0.00002567","EPHEMERIS_TYPE":"0","RCS_SIZE":"LARGE","GP_ID":"223767872","REV_AT_EPOCH":"2926","SEMIMAJOR_AXIS":"6917.871","MEAN_MOTION":"15.08843087","OBJECT_NAME":"STARLINK-4159","OBJECT_TYPE":"PAYLOAD","CLASSIFICATION_TYPE":"U","COUNTRY_CODE":"US","CENTER_NAME":"EARTH","OBJECT_ID":"2022-086BC","MEAN_MOTION_DDOT":"0.0000000000000","EPOCH":"2023-01-26T21:49:38.594208","SITE":"AFETR","NORAD_CAT_ID":"53292","LAUNCH_DATE":"2022-07-24","INCLINATION":"53.2158","FILE":"3762269","REF_FRAME":"TEME","TLE_LINE2":"2 53292  53.2158 251.8124 0001174  85.1876 274.9250 15.08843087 29260","ECCENTRICITY":"0.00011740","PERIOD":"95.437","ARG_OF_PERICENTER":"85.1876","MEAN_ANOMALY":"274.9250","ELEMENT_SET_NO":"999"},{"TLE_LINE1":"1 53293U 22086BD  23026.88095049  .00000226  00000-0  32310-4 0  9999","TIME_SYSTEM":"UTC","APOAPSIS":"540.575","BSTAR":"0.00003231000000","PERIAPSIS":"538.910","DECAY_DATE":null,"RA_OF_ASC_NODE":"241.9418","GP_ID":"223767692","RCS_SIZE":"LARGE","EPHEMERIS_TYPE":"0","MEAN_MOTION_DOT":"0.00000226","MEAN_ELEMENT_THEORY":"SGP4","MEAN_MOTION":"15.08840938","SEMIMAJOR_AXIS":"6917.878","REV_AT_EPOCH":"2939","COUNTRY_CODE":"US","CLASSIFICATION_TYPE":"U","OBJECT_TYPE":"PAYLOAD","OBJECT_NAME":"STARLINK-4148","SITE":"AFETR","EPOCH":"2023-01-26T21:08:34.122336","CENTER_NAME":"EARTH","OBJECT_ID":"2022-086BD","MEAN_MOTION_DDOT":"0.0000000000000","LAUNCH_DATE":"2022-07-24","NORAD_CAT_ID":"53293","MEAN_ANOMALY":"285.5339","PERIOD":"95.437","ARG_OF_PERICENTER":"74.5786","REF_FRAME":"TEME","TLE_LINE2":"2 53293  53.2161 241.9418 0001204  74.5786 285.5339 15.08840938 29399","ECCENTRICITY":"0.00012040","INCLINATION":"53.2161","FILE":"3762269","ELEMENT_SET_NO":"999"},{"MEAN_MOTION":"15.08805626","REV_AT_EPOCH":"2940","SEMIMAJOR_AXIS":"6917.985","COUNTRY_CODE":"US","CLASSIFICATION_TYPE":"U","OBJECT_NAME":"STARLINK-4146","OBJECT_TYPE":"PAYLOAD","APOAPSIS":"540.538","TLE_LINE1":"1 53294U 22086BE  23026.91407536  .00007632  00000-0  49754-3 0  9999","TIME_SYSTEM":"UTC","PERIAPSIS":"539.163","DECAY_DATE":null,"RA_OF_ASC_NODE":"241.7906","BSTAR":"0.00049754000000","EPHEMERIS_TYPE":"0","RCS_SIZE":"LARGE","GP_ID":"223767866","MEAN_ELEMENT_THEORY":"SGP4","MEAN_MOTION_DOT":"0.00007632","PERIOD":"95.440","ARG_OF_PERICENTER":"102.9094","MEAN_ANOMALY":"257.2009","INCLINATION":"53.2187","FILE":"3762269","TLE_LINE2":"2 53294  53.2187 241.7906 0000994 102.9094 257.2009 15.08805626 29408","REF_FRAME":"TEME","ECCENTRICITY":"0.00009940","ELEMENT_SET_NO":"999","SITE":"AFETR","CENTER_NAME":"EARTH","MEAN_MOTION_DDOT":"0.0000000000000","OBJECT_ID":"2022-086BE","EPOCH":"2023-01-26T21:56:16.111104","NORAD_CAT_ID":"53294","LAUNCH_DATE":"2022-07-24"},{"EPOCH":"2023-01-26T15:39:58.045824","CENTER_NAME":"EARTH","MEAN_MOTION_DDOT":"0.0000000000000","OBJECT_ID":"2022-097A","SITE":"AFETR","LAUNCH_DATE":"2022-08-10","NORAD_CAT_ID":"53388","ECCENTRICITY":"0.00017890","TLE_LINE2":"2 53388  53.2142 192.9799 0001789  76.2133 283.9058 15.08839185 26213","REF_FRAME":"TEME","INCLINATION":"53.2142","FILE":"3762044","MEAN_ANOMALY":"283.9058","PERIOD":"95.438","ARG_OF_PERICENTER":"76.2133","ELEMENT_SET_NO":"999","BSTAR":"0.00006604300000","DECAY_DATE":null,"PERIAPSIS":"538.510","RA_OF_ASC_NODE":"192.9799","TLE_LINE1":"1 53388U 22097A   23026.65275516  .00000763  00000-0  66043-4 0  9996","TIME_SYSTEM":"UTC","APOAPSIS":"540.985","MEAN_MOTION_DOT":"0.00000763","MEAN_ELEMENT_THEORY":"SGP4","RCS_SIZE":"LARGE","GP_ID":"223762496","EPHEMERIS_TYPE":"0","SEMIMAJOR_AXIS":"6917.883","REV_AT_EPOCH":"2621","MEAN_MOTION":"15.08839185","OBJECT_TYPE":"PAYLOAD","OBJECT_NAME":"STARLINK-4522","COUNTRY_CODE":"US","CLASSIFICATION_TYPE":"U"}];
